{"type": "FeatureCollection", "features": [ {"type": "Feature", "properties": {"norad_id": 29953, "name": "FENGYUN 1C DEB", "group": "fengyun-1c-debris", "lat": -24.77973288462629, "lon": -8.638791638701285, "alt_km": 952.9342781677951, "timestamp": "2025-12-26T19:22:39.179471+00:00", "meta": {"OBJECT_NAME": "FENGYUN 1C DEB", "OBJECT_ID": "1999-025KB", "EPOCH": "2025-12-26T11:28:14.278656", "MEAN_MOTION": 13.90861666, "ECCENTRICITY": 0.01056959, "INCLINATION": 98.9391, "RA_OF_ASC_NODE": 346.8775, "ARG_OF_PERICENTER": 228.884, "MEAN_ANOMALY": 256.2425, "EPHEMERIS_TYPE": 0, "CLASSIFICATION_TYPE": "U", "NORAD_CAT_ID": 29953, "ELEMENT_SET_NO": 999, "REV_AT_EPOCH": 96053, "BSTAR": 0.00042298338, "MEAN_MOTION_DOT": 5.11e-06, "MEAN_MOTION_DDOT": 0}, "tle": {"line1": "1 29953U 99025KB  25360.47794304  .00000511  00000+0  42298-3 0  9991", "line2": "2 29953  98.9391 346.8775 0105695 228.8840 256.2425 13.90861666960532"}}, "geometry": {"type": "Point", "coordinates": [-8.638791638701285, -24.77973288462629]}}, {"type": "Feature", "properties": {"norad_id": 29954, "name": "FENGYUN 1C DEB", "group": "fengyun-1c-debris", "lat": -36.08872505119404, "lon": 48.82800293064107, "alt_km": 786.7060696582912, "timestamp": "2025-12-26T19:22:39.179482+00:00", "meta": {"OBJECT_NAME": "FENGYUN 1C DEB", "OBJECT_ID": "1999-025KC", "EPOCH": "2025-12-26T14:31:36.678432", "MEAN_MOTION": 14.34294476, "ECCENTRICITY": 0.00748058, "INCLINATION": 100.1497, "RA_OF_ASC_NODE": 41.0882, "ARG_OF_PERICENTER": 230.1955, "MEAN_ANOMALY": 129.2623, "EPHEMERIS_TYPE": 0, "CLASSIFICATION_TYPE": "U", "NORAD_CAT_ID": 29954, "ELEMENT_SET_NO": 999, "REV_AT_EPOCH": 98386, "BSTAR": 0.00084131621, "MEAN_MOTION_DOT": 2.381e-05, "MEAN_MOTION_DDOT": 0}, "tle": {"line1": "1 29954U 99025KC  25360.60528563  .00002381  00000+0  84132-3 0  9999", "line2": "2 29954 100.1497  41.0882 0074805 230.1955 129.2623 14.34294476983868"}}, "geometry": {"type": "Point", "coordinates": [48.82800293064107, -36.08872505119404]}}, {"type": "Feature", "properties": {"norad_id": 29955, "name": "FENGYUN 1C DEB", "group": "fengyun-1c-debris", "lat": -75.03797912493415, "lon": -135.09566251726335, "alt_km": 767.2105393609891, "timestamp": "2025-12-26T19:22:39.179492+00:00", "meta": {"OBJECT_NAME": "FENGYUN 1C DEB", "OBJECT_ID": "1999-025KD", "EPOCH": "2025-12-26T05:04:54.539040", "MEAN_MOTION": 14.38355753, "ECCENTRICITY": 0.00083786, "INCLINATION": 99.2725, "RA_OF_ASC_NODE": 81.9469, "ARG_OF_PERICENTER": 211.639, "MEAN_ANOMALY": 203.8524, "EPHEMERIS_TYPE": 0, "CLASSIFICATION_TYPE": "U", "NORAD_CAT_ID": 29955, "ELEMENT_SET_NO": 999, "REV_AT_EPOCH": 98255, "BSTAR": 0.0015304992, "MEAN_MOTION_DOT": 4.617e-05, "MEAN_MOTION_DDOT": 0}, "tle": {"line1": "1 29955U 99025KD  25360.21174235  .00004617  00000+0  15305-2 0  9999", "line2": "2 29955  99.2725  81.9469 0008378 211.6390 203.8524 14.38355753982558"}}, "geometry": {"type": "Point", "coordinates": [-135.09566251726335, -75.03797912493415]}}, {"type": "Feature", "properties": {"norad_id": 29956, "name": "FENGYUN 1C DEB", "group": "fengyun-1c-debris", "lat": 42.93221969830242, "lon": -142.47137037268638, "alt_km": 904.6052691391769, "timestamp": "2025-12-26T19:22:39.179502+00:00", "meta": {"OBJECT_NAME": "FENGYUN 1C DEB", "OBJECT_ID": "1999-025KE", "EPOCH": "2025-12-26T08:48:42.259392", "MEAN_MOTION": 14.0617484, "ECCENTRICITY": 0.00530444, "INCLINATION": 98.7904, "RA_OF_ASC_NODE": 28.8248, "ARG_OF_PERICENTER": 339.2467, "MEAN_ANOMALY": 89.5096, "EPHEMERIS_TYPE": 0, "CLASSIFICATION_TYPE": "U", "NORAD_CAT_ID": 29956, "ELEMENT_SET_NO": 999, "REV_AT_EPOCH": 97241, "BSTAR": 6.3156153e-05, "MEAN_MOTION_DOT": 6.2e-07, "MEAN_MOTION_DDOT": 0}, "tle": {"line1": "1 29956U 99025KE  25360.36715578  .00000062  00000+0  63156-4 0  9996", "line2": "2 29956  98.7904  28.8248 0053044 339.2467  89.5096 14.06174840972417"}}, "geometry": {"type": "Point", "coordinates": [-142.47137037268638, 42.93221969830242]}}, {"type": "Feature", "properties": {"norad_id": 29957, "name": "FENGYUN 1C DEB", "group": "fengyun-1c-debris", "lat": -44.86215221508086, "lon": 137.6245653087139, "alt_km": 752.6801649269082, "timestamp": "2025-12-26T19:22:39.179512+00:00", "meta": {"OBJECT_NAME": "FENGYUN 1C DEB", "OBJECT_ID": "1999-025KF", "EPOCH": "2025-12-26T14:42:38.727072", "MEAN_MOTION": 14.51587615, "ECCENTRICITY": 0.00360261, "INCLINATION": 98.9213, "RA_OF_ASC_NODE": 128.4246, "ARG_OF_PERICENTER": 137.8123, "MEAN_ANOMALY": 241.1367, "EPHEMERIS_TYPE": 0, "CLASSIFICATION_TYPE": "U", "NORAD_CAT_ID": 29957, "ELEMENT_SET_NO": 999, "REV_AT_EPOCH": 97693, "BSTAR": 0.004676132, "MEAN_MOTION_DOT": 0.00018884, "MEAN_MOTION_DDOT": 0}, "tle": {"line1": "1 29957U 99025KF  25360.61294823  .00018884  00000+0  46761-2 0  9992", "line2": "2 29957  98.9213 128.4246 0036026 137.8123 241.1367 14.51587615976936"}}, "geometry": {"type": "Point", "coordinates": [137.6245653087139, -44.86215221508086]}}, {"type": "Feature", "properties": {"norad_id": 29958, "name": "FENGYUN 1C DEB", "group": "fengyun-1c-debris", "lat": 18.114223206854845, "lon": -162.37857181665905, "alt_km": 869.7215183850558, "timestamp": "2025-12-26T19:22:39.179522+00:00", "meta": {"OBJECT_NAME": "FENGYUN 1C DEB", "OBJECT_ID": "1999-025KG", "EPOCH": "2025-12-26T11:49:14.000160", "MEAN_MOTION": 14.14475199, "ECCENTRICITY": 0.00538427, "INCLINATION": 98.6682, "RA_OF_ASC_NODE": 14.4554, "ARG_OF_PERICENTER": 293.3449, "MEAN_ANOMALY": 66.2065, "EPHEMERIS_TYPE": 0, "CLASSIFICATION_TYPE": "U", "NORAD_CAT_ID": 29958, "ELEMENT_SET_NO": 999, "REV_AT_EPOCH": 97645, "BSTAR": 0.0003533927, "MEAN_MOTION_DOT": 6.44e-06, "MEAN_MOTION_DDOT": 0}, "tle": {"line1": "1 29958U 99025KG  25360.49252315  .00000644  00000+0  35339-3 0  9994", "line2": "2 29958  98.6682  14.4554 0053842 293.3449  66.2065 14.14475199976454"}}, "geometry": {"type": "Point", "coordinates": [-162.37857181665905, 18.114223206854845]}}, {"type": "Feature", "properties": {"norad_id": 29959, "name": "FENGYUN 1C DEB", "group": "fengyun-1c-debris", "lat": 70.0193985493287, "lon": 5.844594092870399, "alt_km": 890.5598322788937, "timestamp": "2025-12-26T19:22:39.179533+00:00", "meta": {"OBJECT_NAME": "FENGYUN 1C DEB", "OBJECT_ID": "1999-025KH", "EPOCH": "2025-12-26T14:30:34.058304", "MEAN_MOTION": 14.06022481, "ECCENTRICITY": 0.00413888, "INCLINATION": 98.8069, "RA_OF_ASC_NODE": 30.8859, "ARG_OF_PERICENTER": 288.2043, "MEAN_ANOMALY": 197.4203, "EPHEMERIS_TYPE": 0, "CLASSIFICATION_TYPE": "U", "NORAD_CAT_ID": 29959, "ELEMENT_SET_NO": 999, "REV_AT_EPOCH": 97135, "BSTAR": 0.00021215801, "MEAN_MOTION_DOT": 3.07e-06, "MEAN_MOTION_DDOT": 0}, "tle": {"line1": "1 29959U 99025KH  25360.60456086  .00000307  00000+0  21216-3 0  9994", "line2": "2 29959  98.8069  30.8859 0041388 288.2043 197.4203 14.06022481971359"}}, "geometry": {"type": "Point", "coordinates": [5.844594092870399, 70.0193985493287]}}, {"type": "Feature", "properties": {"norad_id": 29960, "name": "FENGYUN 1C DEB", "group": "fengyun-1c-debris", "lat": -45.83801755393779, "lon": -5.091394556094867, "alt_km": 819.2062306236776, "timestamp": "2025-12-26T19:22:39.179543+00:00", "meta": {"OBJECT_NAME": "FENGYUN 1C DEB", "OBJECT_ID": "1999-025KJ", "EPOCH": "2025-12-25T11:57:46.792800", "MEAN_MOTION": 14.1642486, "ECCENTRICITY": 0.0090805, "INCLINATION": 98.6159, "RA_OF_ASC_NODE": 344.66, "ARG_OF_PERICENTER": 249.2424, "MEAN_ANOMALY": 232.6666, "EPHEMERIS_TYPE": 0, "CLASSIFICATION_TYPE": "U", "NORAD_CAT_ID": 29960, "ELEMENT_SET_NO": 999, "REV_AT_EPOCH": 97635, "BSTAR": 0.00038639, "MEAN_MOTION_DOT": 7.56e-06, "MEAN_MOTION_DDOT": 0}, "tle": {"line1": "1 29960U 99025KJ  25359.49845825  .00000756  00000+0  38639-3 0  9999", "line2": "2 29960  98.6159 344.6600 0090805 249.2424 232.6666 14.16424860976355"}}, "geometry": {"type": "Point", "coordinates": [-5.091394556094867, -45.83801755393779]}}, {"type": "Feature", "properties": {"norad_id": 29961, "name": "FENGYUN 1C DEB", "group": "fengyun-1c-debris", "lat": -73.97641743336953, "lon": 35.22954696807257, "alt_km": 759.0234269836874, "timestamp": "2025-12-26T19:22:39.179554+00:00", "meta": {"OBJECT_NAME": "FENGYUN 1C DEB", "OBJECT_ID": "1999-025KK", "EPOCH": "2025-12-26T14:48:21.684960", "MEAN_MOTION": 14.26227934, "ECCENTRICITY": 0.00738184, "INCLINATION": 98.9481, "RA_OF_ASC_NODE": 248.307, "ARG_OF_PERICENTER": 264.3199, "MEAN_ANOMALY": 94.956, "EPHEMERIS_TYPE": 0, "CLASSIFICATION_TYPE": "U", "NORAD_CAT_ID": 29961, "ELEMENT_SET_NO": 999, "REV_AT_EPOCH": 98507, "BSTAR": 0.00020248881, "MEAN_MOTION_DOT": 4.52e-06, "MEAN_MOTION_DDOT": 0}, "tle": {"line1": "1 29961U 99025KK  25360.61691765  .00000452  00000+0  20249-3 0  9999", "line2": "2 29961  98.9481 248.3070 0073818 264.3199  94.9560 14.26227934985075"}}, "geometry": {"type": "Point", "coordinates": [35.22954696807257, -73.97641743336953]}}, {"type": "Feature", "properties": {"norad_id": 29962, "name": "FENGYUN 1C DEB", "group": "fengyun-1c-debris", "lat": -4.632651231664111, "lon": -172.1552754421856, "alt_km": 792.7440237420569, "timestamp": "2025-12-26T19:22:39.179564+00:00", "meta": {"OBJECT_NAME": "FENGYUN 1C DEB", "OBJECT_ID": "1999-025KL", "EPOCH": "2025-12-25T23:52:11.928000", "MEAN_MOTION": 14.07165016, "ECCENTRICITY": 0.0110281, "INCLINATION": 98.7681, "RA_OF_ASC_NODE": 7.7728, "ARG_OF_PERICENTER": 183.7636, "MEAN_ANOMALY": 205.4713, "EPHEMERIS_TYPE": 0, "CLASSIFICATION_TYPE": "U", "NORAD_CAT_ID": 29962, "ELEMENT_SET_NO": 999, "REV_AT_EPOCH": 97184, "BSTAR": 3.4562e-05, "MEAN_MOTION_DOT": 1.9e-07, "MEAN_MOTION_DDOT": 0}, "tle": {"line1": "1 29962U 99025KL  25359.99458250  .00000019  00000+0  34562-4 0  9992", "line2": "2 29962  98.7681   7.7728 0110281 183.7636 205.4713 14.07165016971849"}}, "geometry": {"type": "Point", "coordinates": [-172.1552754421856, -4.632651231664111]}}]}